STARLINK-32459          
1 61715U 24196J   26068.46426489 -.00007243  00000+0 -23249-3 0  9997
2 61715  53.1602 102.2746 0000807 100.2867 259.8225 15.30222698 77128
TEVEL2-1                
1 63217U 25052H   26068.64782323  .00020683  00000+0  70600-3 0  9994
2 63217  97.3991 324.7682 0004767 104.8919 255.2849 15.30341923 54855
